BRAC ONNESHA            
1 42823U 98067MX  18080.43303919  .00021520  00000-0  22939-3 0  9996
2 42823  51.6367  86.4656 0003927 212.9651 147.1099 15.63900440 40109
NIGERIAEDUSAT-1         
1 42824U 98067MY  18080.38390697  .00020501  00000-0  22002-3 0  9999
2 42824  51.6372  86.8983 0003832 212.8307 147.2450 15.63761314 40090
CORVUS BC2              
1 42846U 17042X   18080.40561390  .00000373  00000-0  42342-4 0  9995
2 42846  97.6042 346.4142 0010882 123.6326 236.5932 14.91776743 37289
CORVUS BC1              
1 42847U 17042Y   18080.52324267  .00000126  00000-0  17770-4 0  9992
2 42847  97.6042 346.5641 0010559 122.7729 237.4510 14.91875805 37295
SILU-1 (SILKROAD 1)     
1 42903U 17021F   18080.54250958  .00026602  00000-0  23786-3 0  9999
2 42903  42.7786 137.6093 0009785  37.1803  69.8521 15.67768781 36156
MIRATA                  
1 43015U 17073C   18080.34965253  .00001125  00000-0  94816-4 0  9996
2 43015  97.6996  15.1022 0258396 197.1688 162.0662 14.77888751 18160
ASTERIA                 
1 43020U 98067NH  18080.47933865  .00008835  00000-0  12555-3 0  9996
2 43020  51.6394  94.3065 0001821 185.4375 174.6598 15.57237653 18813
DELLINGR (RBLE)         
1 43021U 98067NJ  18080.45290562  .00007878  00000-0  11671-3 0  9999
2 43021  51.6388  94.8747 0001766 182.3605 177.7378 15.56276396 18804
TECHEDSAT 6             
1 43026U 98067NK  18080.60134887  .00127697  00000-0  98650-3 0  9992
2 43026  51.6338  88.3352 0003212  49.7577 310.3701 15.70999629 18808
OSIRIS-3U               
1 43027U 98067NL  18080.57024905  .00024322  00000-0  30288-3 0  9992
2 43027  51.6378  92.6571 0002230 152.2095 207.9017 15.59785095 18727
AEROCUBE 7B             
1 43042U 17071F   18080.56430979  .00003622  00000-0  10493-3 0  9992
2 43042  51.6380 108.2097 0005072 314.4247  45.6321 15.38232363 16110
AEROCUBE 7C             
1 43043U 17071G   18080.56361789  .00003598  00000-0  10427-3 0  9994
2 43043  51.6383 108.2069 0005034 314.4832  45.5740 15.38242381 16082
CHEFSAT                 
1 43044U 17071H   18080.48232170  .00005951  00000-0  16308-3 0  9996
2 43044  51.6386 108.4194 0005133 310.7296  49.3242 15.38727869 16077
ASGARDIA 1              
1 43049U 17071N   18080.42245057  .00004121  00000-0  11735-3 0  9990
2 43049  51.6384 108.7675 0002610 339.3216  20.7662 15.38395703 16069
ISARA                   
1 43050U 17071P   18080.47864056  .00005875  00000-0  16135-3 0  9999
2 43050  51.6385 108.3971 0002659 335.1659  24.9197 15.38688013 16063
FAUNA                   
1 43052U 17071R   18080.28765183  .00004387  00000-0  12387-3 0  9993
2 43052  51.6387 109.3716 0002487 334.6314  25.4548 15.38490292 16039
CORVUS BC3              
1 43118U 18004H   18080.11905884  .00001190  00000-0  55065-4 0  9999
2 43118  97.5438 142.4946 0011853  49.2827 310.9436 15.22080286 10310
MICROMAS-2A             
1 43131U 18004W   18080.10592637  .00002645  00000-0  11732-3 0  9999
2 43131  97.5437 142.5158 0011097  53.3133 306.9121 15.22447037 10313
GOMX4-B                 
1 43196U 18015E   18080.59256348  .00002318  00000-0  10000-3 0  9995
2 43196  97.3312 211.4162 0021929 108.2620 252.0359 15.23321930  7191
GOMX4-A                 
1 43197U 18015F   18080.74214097  .00001545  00000-0  67188-4 0  9999
2 43197  97.3314 211.5570 0021027 104.1313 341.4389 15.23556057  7221
